COSMOS 2058             
1 20465U 90010A   26168.86343892  .00003478  00000+0  20073-3 0  9999
2 20465  82.4686 308.6875 0009095 357.9883   2.1309 15.12019186957376
SL-14 R/B               
1 20466U 90010B   26168.50508056  .00000290  00000+0  32227-4 0  9990
2 20466  82.5015 173.6463 0019060 335.2299  24.7999 14.83646353943289
SL-14 R/B               
1 20511U 90018B   26168.88900306  .00000310  00000+0  35827-4 0  9996
2 20511  82.5210 129.4516 0017479 119.5903 240.7056 14.82216518937420
HST                     
1 20580U 90037B   26168.14321654  .00005620  00000+0  17616-3 0  9999
2 20580  28.4720  80.8753 0001815 141.8279 218.2446 15.30747004788560
SL-16 R/B               
1 20625U 90046B   26168.86715484  .00000086  00000+0  68991-4 0  9990
2 20625  71.0000  87.5200 0013284 160.7530 199.4097 14.15026856862561
COSMOS 2084             
1 20663U 90055A   26168.92460350  .00001671  00000+0  12740-3 0  9999
2 20663  62.7899 353.5738 0005597 280.0812  79.9657 15.06118682951412
SL-6 R/B(2)             
1 20666U 90055D   26168.64770245  .00001199  00000+0  99619-4 0  9994
2 20666  62.7823 273.8094 0040737   5.2182 354.9333 15.04004273953229
SL-8 R/B                
1 20775U 90078B   26168.93258741  .00021576  00000+0  60822-3 0  9998
2 20775  82.9017 160.9719 0350751  35.9568 326.4706 14.92351821824233
SL-8 R/B                
1 21088U 91006B   26168.86190728  .00000058  00000+0  42675-4 0  9999
2 21088  82.9425  95.5318 0023719 112.7653 306.4089 13.77505910777862
OKEAN-3                 
1 21397U 91039A   26168.73687622  .00002314  00000+0  15948-3 0  9997
2 21397  82.5161 239.8482 0014015 356.0579   4.0535 15.05326451880082
COSMOS 2151             
1 21422U 91042A   26168.92668112  .00001187  00000+0  92027-4 0  9995
2 21422  82.4960 346.9672 0013802  81.8394 278.4395 15.00440121878229
SL-14 R/B               
1 21423U 91042B   26168.89567615  .00000299  00000+0  34801-4 0  9997
2 21423  82.4927 126.2311 0015406 272.2865  87.6585 14.81902889867910
ERS-1                   
1 21574U 91050A   26168.65136489  .00000200  00000+0  78668-4 0  9999
2 21574  98.7797 189.3607 0030716 265.5055  94.2623 14.39517854830113
ARIANE 40 R/B           
1 21610U 91050F   26168.74245085  .00000213  00000+0  76081-4 0  9994
2 21610  98.1876 217.1377 0004272 120.3661 239.7952 14.42957352833422
INTERCOSMOS 25          
1 21819U 91086A   26168.60701462  .00000712  00000+0  14190-3 0  9991
2 21819  82.6052 249.5558 1484002 261.4877  81.5862 12.12196119508790
SL-8 R/B                
1 21876U 92008B   26168.49897953  .00000131  00000+0  11887-3 0  9992
2 21876  82.9262 193.5557 0033860 213.7960 254.6254 13.75977041723147
SL-8 R/B                
1 21938U 92020B   26168.85570324  .00000078  00000+0  65481-4 0  9995
2 21938  82.9305  79.3609 0029683  20.7531  47.8358 13.75548934714907
USA 81                  
1 21949U 92023A   26168.83370009  .00000147  00000+0  47124-4 0  9997
2 21949  85.0075  73.6343 0002746  83.9470 276.2036 14.32398350109125
COSMOS 2219             
1 22219U 92076A   26168.96873518  .00000290  00000+0  17654-3 0  9996
2 22219  71.0579 168.4379 0016637  42.8599 317.3817 14.14099565732551
SL-16 R/B               
1 22220U 92076B   26168.88583725  .00000229  00000+0  13796-3 0  9992
2 22220  71.0005 337.3093 0014680 297.7457 167.9919 14.16872575736027
COSMOS 2221             
1 22236U 92080A   26168.54019110  .00001106  00000+0  94887-4 0  9995
2 22236  82.5030 183.4264 0013298 210.9421 149.1019 14.96533739795720
SL-16 R/B               
1 22285U 92093B   26168.94913646 -.00000281  00000+0 -11964-3 0  9993
2 22285  71.0196 153.7917 0003918 187.0398 173.0671 14.15460858727345
COSMOS 2228             
1 22286U 92094A   26168.88947324  .00001621  00000+0  13625-3 0  9991
2 22286  82.5174 141.3701 0016839 329.8794  30.1458 14.97588815791054
SL-16 R/B               
1 22566U 93016B   26168.92929951  .00000227  00000+0  14083-3 0  9998
2 22566  71.0085   4.6486 0010150 182.4974 177.6100 14.15314615716359
COSMOS 2242             
1 22626U 93024A   26168.51500680  .00001310  00000+0  11164-3 0  9994
2 22626  82.5179 171.2292 0015338 335.1626  24.8856 14.96904128795325
SL-16 R/B               
1 22803U 93059B   26168.91339419 -.00000118  00000+0 -34646-4 0  9991
2 22803  70.9886 159.7722 0015249  52.7586 307.4926 14.17248241693735
ARIANE 40 R/B           
1 22830U 93061H   26168.76402184  .00000139  00000+0  66787-4 0  9999
2 22830  98.4819 235.6090 0010401 354.4306   5.6761 14.32908163708436
COSMOS 2278             
1 23087U 94023A   26168.88341831  .00000065  00000+0  58811-4 0  9994
2 23087  71.0548 325.4675 0010623 242.3414 117.6631 14.14398380658972
SL-16 R/B               
1 23088U 94023B   26168.60211279  .00000238  00000+0  14749-3 0  9990
2 23088  70.9993 221.0600 0002736 186.2744 173.8345 14.15025572660220
SL-16 R/B               
1 23343U 94074B   26168.63036359  .00000310  00000+0  48072-4 0  9995
2 23343  97.6990 195.3329 0005157 251.5240 220.8461 14.79502618702023
