OBJECT_NAME,OBJECT_ID,EPOCH,MEAN_MOTION,ECCENTRICITY,INCLINATION,RA_OF_ASC_NODE,ARG_OF_PERICENTER,MEAN_ANOMALY,EPHEMERIS_TYPE,CLASSIFICATION_TYPE,NORAD_CAT_ID,ELEMENT_SET_NO,REV_AT_EPOCH,BSTAR,MEAN_MOTION_DOT,MEAN_MOTION_DDOT
COSMOS 2058,1990-010A,2026-06-17T20:43:21.122688,15.12019186,.00090953,82.4686,308.6875,357.9883,2.1309,0,U,20465,999,95737,.20072753E-3,.3478E-4,0
SL-14 R/B,1990-010B,2026-06-17T12:07:18.960384,14.83646353,.00190606,82.5015,173.6463,335.2299,24.7999,0,U,20466,999,94328,.3222685E-4,.29E-5,0
SL-14 R/B,1990-018B,2026-06-17T21:20:09.864384,14.82216518,.00174791,82.5210,129.4516,119.5903,240.7056,0,U,20511,999,93742,.35827165E-4,.31E-5,0
HST,1990-037B,2026-06-17T03:26:13.909056,15.30747004,.00018155,28.4720,80.8753,141.8279,218.2446,0,U,20580,999,78856,.17615563E-3,.562E-4,0
SL-16 R/B,1990-046B,2026-06-17T20:48:42.178176,14.15026856,.00132842,71.0000,87.5200,160.7530,199.4097,0,U,20625,999,86256,.68991224E-4,.86E-6,0
COSMOS 2084,1990-055A,2026-06-17T22:11:25.742400,15.06118682,.0005597,62.7899,353.5738,280.0812,79.9657,0,U,20663,999,95141,.12740364E-3,.1671E-4,0
SL-6 R/B(2),1990-055D,2026-06-17T15:32:41.491680,15.04004273,.00407376,62.7823,273.8094,5.2182,354.9333,0,U,20666,999,95322,.99619238E-4,.1199E-4,0
SL-8 R/B,1990-078B,2026-06-17T22:22:55.552224,14.92351821,.03507511,82.9017,160.9719,35.9568,326.4706,0,U,20775,999,82423,.60822361E-3,.21576E-3,0
SL-8 R/B,1991-006B,2026-06-17T20:41:08.788992,13.77505910,.00237191,82.9425,95.5318,112.7653,306.4089,0,U,21088,999,77786,.42675227E-4,.58E-6,0
OKEAN-3,1991-039A,2026-06-17T17:41:06.105408,15.05326451,.0014015,82.5161,239.8482,356.0579,4.0535,0,U,21397,999,88008,.15948299E-3,.2314E-4,0
COSMOS 2151,1991-042A,2026-06-17T22:14:25.248768,15.00440121,.00138026,82.4960,346.9672,81.8394,278.4395,0,U,21422,999,87822,.92027231E-4,.1187E-4,0
SL-14 R/B,1991-042B,2026-06-17T21:29:46.419360,14.81902889,.0015406,82.4927,126.2311,272.2865,87.6585,0,U,21423,999,86791,.3480098E-4,.299E-5,0
ERS-1,1991-050A,2026-06-17T15:37:57.926496,14.39517854,.00307167,98.7797,189.3607,265.5055,94.2623,0,U,21574,999,83011,.78668457E-4,.2E-5,0
ARIANE 40 R/B,1991-050F,2026-06-17T17:49:07.753440,14.42957352,.00042722,98.1876,217.1377,120.3661,239.7952,0,U,21610,999,83342,.76081439E-4,.213E-5,0
INTERCOSMOS 25,1991-086A,2026-06-17T14:34:06.063168,12.12196119,.14840021,82.6052,249.5558,261.4877,81.5862,0,U,21819,999,50879,.14190017E-3,.712E-5,0
SL-8 R/B,1992-008B,2026-06-17T11:58:31.831392,13.75977041,.00338609,82.9262,193.5557,213.7960,254.6254,0,U,21876,999,72314,.11886991E-3,.131E-5,0
SL-8 R/B,1992-020B,2026-06-17T20:32:12.759936,13.75548934,.00296839,82.9305,79.3609,20.7531,47.8358,0,U,21938,999,71490,.65480905E-4,.78E-6,0
USA 81,1992-023A,2026-06-17T20:00:31.687776,14.32398350,.00027463,85.0075,73.6343,83.9470,276.2036,0,U,21949,999,10912,.4712392E-4,.147E-5,0
COSMOS 2219,1992-076A,2026-06-17T23:14:58.719552,14.14099565,.00166375,71.0579,168.4379,42.8599,317.3817,0,U,22219,999,73255,.17653568E-3,.29E-5,0
SL-16 R/B,1992-076B,2026-06-17T21:15:36.338400,14.16872575,.00146802,71.0005,337.3093,297.7457,167.9919,0,U,22220,999,73602,.13796099E-3,.229E-5,0
COSMOS 2221,1992-080A,2026-06-17T12:57:52.511040,14.96533739,.0013298,82.5030,183.4264,210.9421,149.1019,0,U,22236,999,79572,.94887E-4,.1106E-4,0
SL-16 R/B,1992-093B,2026-06-17T22:46:45.390144,14.15460858,.00039189,71.0196,153.7917,187.0398,173.0671,0,U,22285,999,72734,-.1196415E-3,-.281E-5,0
COSMOS 2228,1992-094A,2026-06-17T21:20:50.487936,14.97588815,.00168392,82.5174,141.3701,329.8794,30.1458,0,U,22286,999,79105,.13624851E-3,.1621E-4,0
SL-16 R/B,1993-016B,2026-06-17T22:18:11.477664,14.15314615,.001015,71.0085,4.6486,182.4974,177.6100,0,U,22566,999,71635,.14083132E-3,.227E-5,0
COSMOS 2242,1993-024A,2026-06-17T12:21:36.587520,14.96904128,.00153386,82.5179,171.2292,335.1626,24.8856,0,U,22626,999,79532,.11163596E-3,.131E-4,0
SL-16 R/B,1993-059B,2026-06-17T21:55:17.258016,14.17248241,.00152493,70.9886,159.7722,52.7586,307.4926,0,U,22803,999,69373,-.34645656E-4,-.118E-5,0
ARIANE 40 R/B,1993-061H,2026-06-17T18:20:11.486976,14.32908163,.00104018,98.4819,235.6090,354.4306,5.6761,0,U,22830,999,70843,.66786713E-4,.139E-5,0
COSMOS 2278,1994-023A,2026-06-17T21:12:07.341984,14.14398380,.00106232,71.0548,325.4675,242.3414,117.6631,0,U,23087,999,65897,.58811458E-4,.65E-6,0
SL-16 R/B,1994-023B,2026-06-17T14:27:02.545056,14.15025572,.0002736,70.9993,221.0600,186.2744,173.8345,0,U,23088,999,66022,.14749E-3,.238E-5,0
SL-16 R/B,1994-074B,2026-06-17T15:07:43.414176,14.79502618,.0005157,97.6990,195.3329,251.5240,220.8461,0,U,23343,999,70202,.48072E-4,.31E-5,0
